SL-14 R/B               
1 21423U 91042B   26052.48393058  .00000394  00000+0  46931-4 0  9995
2 21423  82.4896 235.3812 0015673 296.7844  63.1766 14.81811647850673
ERS-1                   
1 21574U 91050A   26052.50119425  .00000262  00000+0  98555-4 0  9991
2 21574  98.7892  70.3286 0030951 249.6296 110.1565 14.39435260813408
ARIANE 40 R/B           
1 21610U 91050F   26052.10522470  .00000242  00000+0  85060-4 0  9991
2 21610  98.2050 104.9612 0004266 117.4953 242.6672 14.42880394816600
INTERCOSMOS 25          
1 21819U 91086A   26052.22846693  .00000863  00000+0  16354-3 0  9998
2 21819  82.6078 319.9559 1487023 152.3917 216.4872 12.11949312494693
SL-8 R/B                
1 21876U 92008B   26052.15324284  .00000019  00000+0  35728-5 0  9996
2 21876  82.9243 280.0817 0034616 178.7705 296.3909 13.75970056707145
SL-8 R/B                
1 21938U 92020B   26052.32429343  .00000098  00000+0  86192-4 0  9997
2 21938  82.9342 165.9083 0028443 346.0083  67.2486 13.75547318698886
USA 81                  
1 21949U 92023A   26052.31206282  .00000187  00000+0  61856-4 0  9995
2 21949  85.0114 140.8863 0002744  92.6211 267.5295 14.32361843 92444
COSMOS 2219             
1 22219U 92076A   26052.39267328  .00000306  00000+0  18523-3 0  9995
2 22219  71.0590  52.1365 0019750 228.8868 131.0550 14.14081091716071
SL-16 R/B               
1 22220U 92076B   26052.45278102  .00000069  00000+0  58352-4 0  9997
2 22220  70.9978 222.5752 0011081 126.2663 265.0692 14.16854892719535
COSMOS 2221             
1 22236U 92080A   26052.18503718  .00001609  00000+0  14058-3 0  9998
2 22236  82.5036 294.8905 0012910 246.7139 113.2725 14.96132448778323
SL-16 R/B               
1 22285U 92093B   26052.41470990  .00000272  00000+0  16388-3 0  9990
2 22285  71.0218  38.4305 0005726 311.1482  48.9146 14.15447043710859
COSMOS 2228             
1 22286U 92094A   26052.47958087  .00001768  00000+0  15053-3 0  9995
2 22286  82.5145 252.8340 0018033   1.1751 358.9510 14.97105351773634
